{
  "type": "FeatureCollection",
  "features": [
    {
      "type": "Feature",
      "properties": {
        "norad_id": 66582,
        "name": "STARLINK-35746",
        "group": "last-30-days",
        "lat": 3.7993825045851217,
        "lon": -8.821007167608736,
        "alt_km": 345.15287933789114,
        "timestamp": "2025-12-03T13:52:08.346803+00:00",
        "meta_object_name": "STARLINK-35746",
        "meta_object_id": "2025-268AB",
        "meta_epoch": "2025-12-03T06:00:02.999808",
        "meta_mean_motion": 15.7542013,
        "meta_eccentricity": 0.00014796,
        "meta_inclination": 42.9991,
        "meta_ra_of_asc_node": 177.2554,
        "meta_arg_of_pericenter": 283.3025,
        "meta_mean_anomaly": 189.8639,
        "meta_ephemeris_type": 0,
        "meta_classification_type": "U",
        "meta_norad_cat_id": 66582,
        "meta_element_set_no": 999,
        "meta_rev_at_epoch": 314,
        "meta_bstar": -0.007281179,
        "meta_mean_motion_dot": -0.01026808,
        "meta_mean_motion_ddot": 0,
        "tle_line1": "1 66582U 25268AB  25337.25003472 -.01026808  00000+0 -72812-2 0  9991",
        "tle_line2": "2 66582  42.9991 177.2554 0001479 283.3025 189.8639 15.75420130  3148"
      },
      "geometry": {
        "type": "Point",
        "coordinates": [
          -8.821007167608736,
          3.7993825045851217
        ]
      }
    },
    {
      "type": "Feature",
      "properties": {
        "norad_id": 66583,
        "name": "STARLINK-35941",
        "group": "last-30-days",
        "lat": 2.493434676451281,
        "lon": -7.417684902828614,
        "alt_km": 345.1274405835402,
        "timestamp": "2025-12-03T13:52:08.346813+00:00",
        "meta_object_name": "STARLINK-35941",
        "meta_object_id": "2025-268AC",
        "meta_epoch": "2025-12-03T06:00:02.999808",
        "meta_mean_motion": 15.7540652,
        "meta_eccentricity": 0.00014981,
        "meta_inclination": 42.999,
        "meta_ra_of_asc_node": 177.2504,
        "meta_arg_of_pericenter": 274.1931,
        "meta_mean_anomaly": 200.9029,
        "meta_ephemeris_type": 0,
        "meta_classification_type": "U",
        "meta_norad_cat_id": 66583,
        "meta_element_set_no": 999,
        "meta_rev_at_epoch": 314,
        "meta_bstar": -0.0071782806,
        "meta_mean_motion_dot": -0.01013128,
        "meta_mean_motion_ddot": 0,
        "tle_line1": "1 66583U 25268AC  25337.25003472 -.01013128  00000+0 -71783-2 0  9999",
        "tle_line2": "2 66583  42.9990 177.2504 0001498 274.1931 200.9029 15.75406520  3143"
      },
      "geometry": {
        "type": "Point",
        "coordinates": [
          -7.417684902828614,
          2.493434676451281
        ]
      }
    },
    {
      "type": "Feature",
      "properties": {
        "norad_id": 66584,
        "name": "STARLINK-35939",
        "group": "last-30-days",
        "lat": 1.1864838034754546,
        "lon": -6.017165484193651,
        "alt_km": 345.077913397502,
        "timestamp": "2025-12-03T13:52:08.346826+00:00",
        "meta_object_name": "STARLINK-35939",
        "meta_object_id": "2025-268AD",
        "meta_epoch": "2025-12-03T06:00:02.999808",
        "meta_mean_motion": 15.75383019,
        "meta_eccentricity": 0.00013467,
        "meta_inclination": 42.999,
        "meta_ra_of_asc_node": 177.2459,
        "meta_arg_of_pericenter": 264.9653,
        "meta_mean_anomaly": 212.0609,
        "meta_ephemeris_type": 0,
        "meta_classification_type": "U",
        "meta_norad_cat_id": 66584,
        "meta_element_set_no": 999,
        "meta_rev_at_epoch": 314,
        "meta_bstar": -0.0069480735,
        "meta_mean_motion_dot": -0.00982641,
        "meta_mean_motion_ddot": 0,
        "tle_line1": "1 66584U 25268AD  25337.25003472 -.00982641  00000+0 -69481-2 0  9996",
        "tle_line2": "2 66584  42.9990 177.2459 0001346 264.9653 212.0609 15.75383019  3148"
      },
      "geometry": {
        "type": "Point",
        "coordinates": [
          -6.017165484193651,
          1.1864838034754546
        ]
      }
    },
    {
      "type": "Feature",
      "properties": {
        "norad_id": 66585,
        "name": "STARLINK-35963",
        "group": "last-30-days",
        "lat": -0.11406286576061558,
        "lon": -4.6252797245057495,
        "alt_km": 345.27983933380256,
        "timestamp": "2025-12-03T13:52:08.346838+00:00",
        "meta_object_name": "STARLINK-35963",
        "meta_object_id": "2025-268AE",
        "meta_epoch": "2025-12-03T06:00:02.999808",
        "meta_mean_motion": 15.75406398,
        "meta_eccentricity": 0.00020419,
        "meta_inclination": 42.9989,
        "meta_ra_of_asc_node": 177.2418,
        "meta_arg_of_pericenter": 268.1508,
        "meta_mean_anomaly": 210.7779,
        "meta_ephemeris_type": 0,
        "meta_classification_type": "U",
        "meta_norad_cat_id": 66585,
        "meta_element_set_no": 999,
        "meta_rev_at_epoch": 314,
        "meta_bstar": -0.0071833678,
        "meta_mean_motion_dot": -0.01013986,
        "meta_mean_motion_ddot": 0,
        "tle_line1": "1 66585U 25268AE  25337.25003472 -.01013986  00000+0 -71834-2 0  9990",
        "tle_line2": "2 66585  42.9989 177.2418 0002041 268.1508 210.7779 15.75406398  3149"
      },
      "geometry": {
        "type": "Point",
        "coordinates": [
          -4.6252797245057495,
          -0.11406286576061558
        ]
      }
    },
    {
      "type": "Feature",
      "properties": {
        "norad_id": 66586,
        "name": "TJS-21",
        "group": "last-30-days",
        "lat": 25.5726285690594,
        "lon": -165.1434367701676,
        "alt_km": 36551.97721540764,
        "timestamp": "2025-12-03T13:52:08.346852+00:00",
        "meta_object_name": "TJS-21",
        "meta_object_id": "2025-269A",
        "meta_epoch": "2025-11-22T00:38:56.616288",
        "meta_mean_motion": 2.0099221,
        "meta_eccentricity": 0.75179873,
        "meta_inclination": 51.0366,
        "meta_ra_of_asc_node": 174.7096,
        "meta_arg_of_pericenter": 225.0489,
        "meta_mean_anomaly": 41.6572,
        "meta_ephemeris_type": 0,
        "meta_classification_type": "U",
        "meta_norad_cat_id": 66586,
        "meta_element_set_no": 999,
        "meta_rev_at_epoch": 2,
        "meta_bstar": 0.00053569978,
        "meta_mean_motion_dot": 3.197e-05,
        "meta_mean_motion_ddot": 0,
        "tle_line1": "1 66586U 25269A   25326.02704417  .00003197  00000+0  53570-3 0  9990",
        "tle_line2": "2 66586  51.0366 174.7096 7517987 225.0489  41.6572  2.00992210    24"
      },
      "geometry": {
        "type": "Point",
        "coordinates": [
          -165.1434367701676,
          25.5726285690594
        ]
      }
    },
    {
      "type": "Feature",
      "properties": {
        "norad_id": 66587,
        "name": "CZ-3B R/B",
        "group": "last-30-days",
        "lat": 29.82169235292579,
        "lon": -160.96036792277403,
        "alt_km": 38826.311568221965,
        "timestamp": "2025-12-03T13:52:08.346869+00:00",
        "meta_object_name": "CZ-3B R/B",
        "meta_object_id": "2025-269B",
        "meta_epoch": "2025-11-23T12:20:01.405824",
        "meta_mean_motion": 2.01516013,
        "meta_eccentricity": 0.75253415,
        "meta_inclination": 51.3768,
        "meta_ra_of_asc_node": 174.0599,
        "meta_arg_of_pericenter": 225.2938,
        "meta_mean_anomaly": 41.2116,
        "meta_ephemeris_type": 0,
        "meta_classification_type": "U",
        "meta_norad_cat_id": 66587,
        "meta_element_set_no": 999,
        "meta_rev_at_epoch": 6,
        "meta_bstar": 0.00049596604,
        "meta_mean_motion_dot": 0.0001032,
        "meta_mean_motion_ddot": -9.13844e-07,
        "tle_line1": "1 66587U 25269B   25327.51390516  .00010320 -91384-6  49597-3 0  9990",
        "tle_line2": "2 66587  51.3768 174.0599 7525341 225.2938  41.2116  2.01516013    67"
      },
      "geometry": {
        "type": "Point",
        "coordinates": [
          -160.96036792277403,
          29.82169235292579
        ]
      }
    },
    {
      "type": "Feature",
      "properties": {
        "norad_id": 66588,
        "name": "STARLINK-36076",
        "group": "last-30-days",
        "lat": -42.028711504013444,
        "lon": 171.95469129112965,
        "alt_km": 341.39526938917606,
        "timestamp": "2025-12-03T13:52:08.346886+00:00",
        "meta_object_name": "STARLINK-36076",
        "meta_object_id": "2025-270A",
        "meta_epoch": "2025-12-03T06:00:02.999808",
        "meta_mean_motion": 15.77968675,
        "meta_eccentricity": 0.00015689,
        "meta_inclination": 42.9988,
        "meta_ra_of_asc_node": 249.2554,
        "meta_arg_of_pericenter": 267.69,
        "meta_mean_anomaly": 309.209,
        "meta_ephemeris_type": 0,
        "meta_classification_type": "U",
        "meta_norad_cat_id": 66588,
        "meta_element_set_no": 999,
        "meta_rev_at_epoch": 287,
        "meta_bstar": -0.0099546712,
        "meta_mean_motion_dot": -0.01529085,
        "meta_mean_motion_ddot": 0,
        "tle_line1": "1 66588U 25270A   25337.25003472 -.01529085  00000+0 -99547-2 0  9999",
        "tle_line2": "2 66588  42.9988 249.2554 0001568 267.6900 309.2090 15.77968675  2877"
      },
      "geometry": {
        "type": "Point",
        "coordinates": [
          171.95469129112965,
          -42.028711504013444
        ]
      }
    }
  ]
}